INTELSAT 23 (IS-23)     
1 38867U 12057A   26200.46725465 -.00000289  00000+0  00000+0 0  9994
2 38867   0.0175  10.7184 0000397 117.2277 284.4937  1.00276401 50276
BEIDOU-2 G6             
1 38953U 12059A   26200.56573444 -.00000182  00000+0  00000+0 0  9993
2 38953   4.5018  73.1739 0008876 327.6755 184.1795  1.00273181 50230
LUCH-5B                 
1 38977U 12061A   26200.33196903 -.00000147  00000+0  00000+0 0  9999
2 38977  10.5518  49.5606 0003806 146.8314 203.9406  1.00270298 49927
YAMAL 300K              
1 38978U 12061B   26200.51396736  .00000067  00000+0  00000+0 0  9996
2 38978   0.0121 234.8051 0000116 269.5559 160.9198  1.00270921 49956
STAR ONE C3             
1 38991U 12062A   26200.53416079 -.00000253  00000+0  00000+0 0  9995
2 38991   0.0165  60.7244 0002316  63.9763 289.9302  1.00272512 50089
EUTELSAT 21B            
1 38992U 12062B   26200.55331420  .00000126  00000+0  00000+0 0  9992
2 38992   0.0683 343.6995 0003242 142.0157  32.3818  1.00273107 50157
ECHOSTAR 16             
1 39008U 12065A   26200.53684747 -.00000286  00000+0  00000+0 0  9993
2 39008   0.0196  47.9652 0002029  63.0104 318.1097  1.00268714 49964
ZHONGXING-12            
1 39017U 12067A   26200.56634111 -.00000211  00000+0  00000+0 0  9996
2 39017   0.0446  96.3699 0002655  19.5097 112.8465  1.00270878 49831
EUTELSAT 70B            
1 39020U 12069A   26200.56304777 -.00000047  00000+0  00000+0 0  9991
2 39020   0.0621  10.6499 0003577 107.3435  92.5449  1.00271763 49833
YAMAL 402               
1 39022U 12070A   26200.55990089  .00000081  00000+0  00000+0 0  9998
2 39022   1.3459  83.7607 0003757  27.3582  82.6766  1.00272014 49724
SKYNET 5D               
1 39034U 12075A   26200.55946756  .00000095  00000+0  00000+0 0  9993
2 39034   0.0687   7.3846 0003598 118.4931  65.6141  1.00272407 49483
MEXSAT 3                
1 39035U 12075B   26200.52627409 -.00000030  00000+0  00000+0 0  9992
2 39035   0.0189  65.0063 0001155  46.4306 260.5270  1.00271183  7377
TDRS 11                 
1 39070U 13004A   26200.56301534  .00000074  00000+0  00000+0 0  9993
2 39070   3.5680  31.7589 0005399  29.8917 264.2111  1.00264721 47010
AMAZONAS 3              
1 39078U 13006A   26200.53693413 -.00000287  00000+0  00000+0 0  9997
2 39078   0.0277 223.3003 0003512 288.5192 277.7951  1.00271198 45235
AZERSPACE 1             
1 39079U 13006B   26200.48684140  .00000129  00000+0  00000+0 0  9993
2 39079   0.0190  55.5953 0001948  93.5981   9.3172  1.00272625 49133
SBIRS GEO-2 (USA 241)   
1 39120U 13011A   26200.53918748 -.00000293  00000+0  00000+0 0  9999
2 39120   4.5568  52.5021 0001946  60.0785 329.0554  1.00271433 48861
EUTELSAT 117 WEST A     
1 39122U 13012A   26200.52592741 -.00000017  00000+0  00000+0 0  9996
2 39122   0.0403 274.3488 0002844 202.8056 252.6799  1.00271249 48753
ANIK G1                 
1 39127U 13014A   26200.52783409 -.00000078  00000+0  00000+0 0  9993
2 39127   0.0250 282.6505 0001866 202.9048 254.4719  1.00272089 48570
ZHONGXING-11            
1 39157U 13020A   26200.67833456 -.00000294  00000+0  00000+0 0  9997
2 39157   0.0461 272.8633 0002217 165.1334 201.5527  1.00273614 48226
EUTELSAT 7B             
1 39163U 13022A   26200.26528157  .00000043  00000+0  00000+0 0  9991
2 39163   0.0666 346.4742 0003236  62.8426 350.2250  1.00270847 48260
WGS F5 (USA 243)        
1 39168U 13024A   26200.46734132  .00000000  00000+0  00000+0 0  9995
2 39168   0.0204  63.7361 0000109  86.7165 262.5548  1.00269726 47493
SES-6                   
1 39172U 13026A   26200.39841267 -.00000266  00000+0  00000+0 0  9997
2 39172   0.0166   6.9752 0002684  91.6482 301.4980  1.00272023 48044
IRNSS-1A                
1 39199U 13034A   26191.72043649  .00000047  00000+0  00000+0 0  9995
2 39199  35.7704  63.5328 0017567 183.4462 356.2994  1.00281941 47601
MUOS-2                  
1 39206U 13036A   26200.44056119 -.00000019  00000+0  00000+0 0  9992
2 39206   5.0576  45.5540 0053047 176.3910  45.8535  1.00273105 47510
ALPHASAT                
1 39215U 13038A   26200.34011573  .00000128  00000+0  00000+0 0  9998
2 39215   2.9995   1.1775 0002516 138.4676 304.7927  1.00273925 44342
INSAT-3D                
1 39216U 13038B   26200.57466115 -.00000344  00000+0  00000+0 0  9991
2 39216   2.0080  82.1344 0000995  45.3021 146.2893  1.00274080 47403
WGS F6 (USA 244)        
1 39222U 13041A   26200.37969258  .00000084  00000+0  00000+0 0  9996
2 39222   0.0187  57.8745 0000229  50.2392 190.5459  1.00271785 46381
ES'HAIL 1               
1 39233U 13044A   26200.55409421  .00000139  00000+0  00000+0 0  9993
2 39233   0.0477 358.3882 0002332 110.9266  52.9847  1.00270543 46953
GSAT-7                  
1 39234U 13044B   26200.56365443 -.00000081  00000+0  00000+0 0  9997
2 39234   0.1622  89.5040 0003045 175.0301 309.6838  1.00272059 45584
AMOS-4                  
1 39237U 13045A   26200.56192110  .00000003  00000+0  00000+0 0  9993
2 39237   0.0106 229.7210 0002040 218.1821 116.7271  1.00271482 47286
AEHF-3 (USA 246)        
1 39256U 13050A   26200.41989162  .00000022  00000+0  00000+0 0  9996
2 39256   5.3705  66.8854 0088620 187.7089  69.4965  1.00272130 45978
ASTRA 2E                
1 39285U 13056A   26200.48328806  .00000146  00000+0  00000+0 0  9990
2 39285   0.0698 319.9611 0002590 154.1359  25.6116  1.00271043 46746
