OBJECT_NAME,OBJECT_ID,EPOCH,MEAN_MOTION,ECCENTRICITY,INCLINATION,RA_OF_ASC_NODE,ARG_OF_PERICENTER,MEAN_ANOMALY,EPHEMERIS_TYPE,CLASSIFICATION_TYPE,NORAD_CAT_ID,ELEMENT_SET_NO,REV_AT_EPOCH,BSTAR,MEAN_MOTION_DOT,MEAN_MOTION_DDOT
INTELSAT 23 (IS-23),2012-057A,2026-07-19T11:12:50.801760,1.00276401,.00003977,0.0175,10.7184,117.2277,284.4937,0,U,38867,999,5027,0,-.289E-5,0
BEIDOU-2 G6,2012-059A,2026-07-19T13:34:39.455616,1.00273181,.00088768,4.5018,73.1739,327.6755,184.1795,0,U,38953,999,5023,0,-.182E-5,0
LUCH-5B,2012-061A,2026-07-19T07:58:02.124192,1.00270298,.00038063,10.5518,49.5606,146.8314,203.9406,0,U,38977,999,4992,0,-.147E-5,0
YAMAL 300K,2012-061B,2026-07-19T12:20:06.779904,1.00270921,.00001165,0.0121,234.8051,269.5559,160.9198,0,U,38978,999,4995,0,.67E-6,0
STAR ONE C3,2012-062A,2026-07-19T12:49:11.492256,1.00272512,.00023168,0.0165,60.7244,63.9763,289.9302,0,U,38991,999,5008,0,-.253E-5,0
EUTELSAT 21B,2012-062B,2026-07-19T13:16:46.346880,1.00273107,.00032427,0.0683,343.6995,142.0157,32.3818,0,U,38992,999,5015,0,.126E-5,0
ECHOSTAR 16,2012-065A,2026-07-19T12:53:03.621408,1.00268714,.00020299,0.0196,47.9652,63.0104,318.1097,0,U,39008,999,4996,0,-.286E-5,0
ZHONGXING-12,2012-067A,2026-07-19T13:35:31.871904,1.00270878,.00026556,0.0446,96.3699,19.5097,112.8465,0,U,39017,999,4983,0,-.211E-5,0
EUTELSAT 70B,2012-069A,2026-07-19T13:30:47.327328,1.00271763,.00035777,0.0621,10.6499,107.3435,92.5449,0,U,39020,999,4983,0,-.47E-6,0
YAMAL 402,2012-070A,2026-07-19T13:26:15.436896,1.00272014,.0003757,1.3459,83.7607,27.3582,82.6766,0,U,39022,999,4972,0,.81E-6,0
SKYNET 5D,2012-075A,2026-07-19T13:25:37.997184,1.00272407,.00035986,0.0687,7.3846,118.4931,65.6141,0,U,39034,999,4948,0,.95E-6,0
MEXSAT 3,2012-075B,2026-07-19T12:37:50.081376,1.00271183,.00011552,0.0189,65.0063,46.4306,260.5270,0,U,39035,999,737,0,-.3E-6,0
TDRS 11,2013-004A,2026-07-19T13:30:44.525376,1.00264721,.00053992,3.5680,31.7589,29.8917,264.2111,0,U,39070,999,4701,0,.74E-6,0
AMAZONAS 3,2013-006A,2026-07-19T12:53:11.108832,1.00271198,.00035121,0.0277,223.3003,288.5192,277.7951,0,U,39078,999,4523,0,-.287E-5,0
AZERSPACE 1,2013-006B,2026-07-19T11:41:03.096960,1.00272625,.00019484,0.0190,55.5953,93.5981,9.3172,0,U,39079,999,4913,0,.129E-5,0
SBIRS GEO-2 (USA 241),2013-011A,2026-07-19T12:56:25.798272,1.00271433,.00019469,4.5568,52.5021,60.0785,329.0554,0,U,39120,999,4886,0,-.293E-5,0
EUTELSAT 117 WEST A,2013-012A,2026-07-19T12:37:20.128224,1.00271249,.00028448,0.0403,274.3488,202.8056,252.6799,0,U,39122,999,4875,0,-.17E-6,0
ANIK G1,2013-014A,2026-07-19T12:40:04.865376,1.00272089,.00018665,0.0250,282.6505,202.9048,254.4719,0,U,39127,999,4857,0,-.78E-6,0
ZHONGXING-11,2013-020A,2026-07-19T16:16:48.105984,1.00273614,.00022179,0.0461,272.8633,165.1334,201.5527,0,U,39157,999,4822,0,-.294E-5,0
EUTELSAT 7B,2013-022A,2026-07-19T06:22:00.327648,1.00270847,.00032364,0.0666,346.4742,62.8426,350.2250,0,U,39163,999,4826,0,.43E-6,0
WGS F5 (USA 243),2013-024A,2026-07-19T11:12:58.290048,1.00269726,.00001096,0.0204,63.7361,86.7165,262.5548,0,U,39168,999,4749,0,0,0
SES-6,2013-026A,2026-07-19T09:33:42.854688,1.00272023,.00026842,0.0166,6.9752,91.6482,301.4980,0,U,39172,999,4804,0,-.266E-5,0
IRNSS-1A,2013-034A,2026-07-10T17:17:25.712736,1.00281941,.0017567,35.7704,63.5328,183.4462,356.2994,0,U,39199,999,4760,0,.47E-6,0
MUOS-2,2013-036A,2026-07-19T10:34:24.486816,1.00273105,.00530474,5.0576,45.5540,176.3910,45.8535,0,U,39206,999,4751,0,-.19E-6,0
ALPHASAT,2013-038A,2026-07-19T08:09:45.999072,1.00273925,.00025163,2.9995,1.1775,138.4676,304.7927,0,U,39215,999,4434,0,.128E-5,0
INSAT-3D,2013-038B,2026-07-19T13:47:30.723360,1.00274080,.00009959,2.0080,82.1344,45.3021,146.2893,0,U,39216,999,4740,0,-.344E-5,0
WGS F6 (USA 244),2013-041A,2026-07-19T09:06:45.438912,1.00271785,.00002298,0.0187,57.8745,50.2392,190.5459,0,U,39222,999,4638,0,.84E-6,0
ES'HAIL 1,2013-044A,2026-07-19T13:17:53.739744,1.00270543,.00023326,0.0477,358.3882,110.9266,52.9847,0,U,39233,999,4695,0,.139E-5,0
GSAT-7,2013-044B,2026-07-19T13:31:39.742752,1.00272059,.00030458,0.1622,89.5040,175.0301,309.6838,0,U,39234,999,4558,0,-.81E-6,0
AMOS-4,2013-045A,2026-07-19T13:29:09.983040,1.00271482,.000204,0.0106,229.7210,218.1821,116.7271,0,U,39237,999,4728,0,.3E-7,0
AEHF-3 (USA 246),2013-050A,2026-07-19T10:04:38.635968,1.00272130,.00886201,5.3705,66.8854,187.7089,69.4965,0,U,39256,999,4597,0,.22E-6,0
ASTRA 2E,2013-056A,2026-07-19T11:35:56.088384,1.00271043,.00025901,0.0698,319.9611,154.1359,25.6116,0,U,39285,999,4674,0,.146E-5,0
